CCSDS_OMM_VERS = 2.0
CREATION_DATE  = 
ORIGINATOR     = 

OBJECT_NAME    = ATLAS CENTAUR R/B
OBJECT_ID      = 1972-065B
CENTER_NAME    = EARTH
REF_FRAME      = TEME
TIME_SYSTEM    = UTC
MEAN_ELEMENT_THEORY = SGP/SGP4

EPOCH          = 2026-01-23T14:59:21.834528
MEAN_MOTION    = 14.77540694
ECCENTRICITY   = .00340034
INCLINATION    = 34.9997
RA_OF_ASC_NODE = 209.8233
ARG_OF_PERICENTER = 349.6712
MEAN_ANOMALY   = 10.3287

EPHEMERIS_TYPE = 0
CLASSIFICATION_TYPE = U
NORAD_CAT_ID   = 6155
ELEMENT_SET_NO = 999
REV_AT_EPOCH   = 83459
BSTAR          = .2888794E-3
MEAN_MOTION_DOT = .2092E-4
MEAN_MOTION_DDOT = 0

CCSDS_OMM_VERS = 2.0
CREATION_DATE  = 
ORIGINATOR     = 

OBJECT_NAME    = SL-8 R/B
OBJECT_ID      = 1975-112B
CENTER_NAME    = EARTH
REF_FRAME      = TEME
TIME_SYSTEM    = UTC
MEAN_ELEMENT_THEORY = SGP/SGP4

EPOCH          = 2026-01-23T15:17:11.158080
MEAN_MOTION    = 14.38178280
ECCENTRICITY   = .00161086
INCLINATION    = 74.0608
RA_OF_ASC_NODE = 101.7943
ARG_OF_PERICENTER = 208.4160
MEAN_ANOMALY   = 151.6117

EPHEMERIS_TYPE = 0
CLASSIFICATION_TYPE = U
NORAD_CAT_ID   = 8459
ELEMENT_SET_NO = 999
REV_AT_EPOCH   = 62539
BSTAR          = .17612067E-3
MEAN_MOTION_DOT = .509E-5
MEAN_MOTION_DDOT = 0

CCSDS_OMM_VERS = 2.0
CREATION_DATE  = 
ORIGINATOR     = 

OBJECT_NAME    = SL-3 R/B
OBJECT_ID      = 1977-057B
CENTER_NAME    = EARTH
REF_FRAME      = TEME
TIME_SYSTEM    = UTC
MEAN_ELEMENT_THEORY = SGP/SGP4

EPOCH          = 2026-01-23T13:42:18.703584
MEAN_MOTION    = 15.44122825
ECCENTRICITY   = .00085931
INCLINATION    = 97.5715
RA_OF_ASC_NODE = 193.5704
ARG_OF_PERICENTER = 86.8324
MEAN_ANOMALY   = 273.3907

EPHEMERIS_TYPE = 0
CLASSIFICATION_TYPE = U
NORAD_CAT_ID   = 10114
ELEMENT_SET_NO = 999
REV_AT_EPOCH   = 66136
BSTAR          = .39008077E-3
MEAN_MOTION_DOT = .17801E-3
MEAN_MOTION_DDOT = 0

CCSDS_OMM_VERS = 2.0
CREATION_DATE  = 
ORIGINATOR     = 

OBJECT_NAME    = SEASAT 1
OBJECT_ID      = 1978-064A
CENTER_NAME    = EARTH
REF_FRAME      = TEME
TIME_SYSTEM    = UTC
MEAN_ELEMENT_THEORY = SGP/SGP4

EPOCH          = 2026-01-23T11:08:44.111616
MEAN_MOTION    = 14.46115631
ECCENTRICITY   = .00012354
INCLINATION    = 108.0169
RA_OF_ASC_NODE = 30.5864
ARG_OF_PERICENTER = 284.9024
MEAN_ANOMALY   = 75.1985

EPHEMERIS_TYPE = 0
CLASSIFICATION_TYPE = U
NORAD_CAT_ID   = 10967
ELEMENT_SET_NO = 999
REV_AT_EPOCH   = 49997
BSTAR          = .25020737E-3
MEAN_MOTION_DOT = .757E-5
MEAN_MOTION_DDOT = 0

CCSDS_OMM_VERS = 2.0
CREATION_DATE  = 
ORIGINATOR     = 

OBJECT_NAME    = SL-14 R/B
OBJECT_ID      = 1979-011B
CENTER_NAME    = EARTH
REF_FRAME      = TEME
TIME_SYSTEM    = UTC
MEAN_ELEMENT_THEORY = SGP/SGP4

EPOCH          = 2026-01-23T13:48:51.142752
MEAN_MOTION    = 14.91840685
ECCENTRICITY   = .00154362
INCLINATION    = 82.5261
RA_OF_ASC_NODE = 139.3687
ARG_OF_PERICENTER = 203.3477
MEAN_ANOMALY   = 156.7044

EPHEMERIS_TYPE = 0
CLASSIFICATION_TYPE = U
NORAD_CAT_ID   = 11267
ELEMENT_SET_NO = 999
REV_AT_EPOCH   = 52205
BSTAR          = .12643872E-3
MEAN_MOTION_DOT = .1304E-4
MEAN_MOTION_DDOT = 0

CCSDS_OMM_VERS = 2.0
CREATION_DATE  = 
ORIGINATOR     = 

OBJECT_NAME    = SL-8 R/B
OBJECT_ID      = 1979-089B
CENTER_NAME    = EARTH
REF_FRAME      = TEME
TIME_SYSTEM    = UTC
MEAN_ELEMENT_THEORY = SGP/SGP4

EPOCH          = 2026-01-23T15:52:31.018368
MEAN_MOTION    = 14.42317620
ECCENTRICITY   = .00158719
INCLINATION    = 74.0683
RA_OF_ASC_NODE = 174.3883
ARG_OF_PERICENTER = 354.0245
MEAN_ANOMALY   = 6.0719

EPHEMERIS_TYPE = 0
CLASSIFICATION_TYPE = U
NORAD_CAT_ID   = 11574
ELEMENT_SET_NO = 999
REV_AT_EPOCH   = 42961
BSTAR          = .20248313E-3
MEAN_MOTION_DOT = .643E-5
MEAN_MOTION_DDOT = 0

CCSDS_OMM_VERS = 2.0
CREATION_DATE  = 
ORIGINATOR     = 

OBJECT_NAME    = SL-14 R/B
OBJECT_ID      = 1980-005B
CENTER_NAME    = EARTH
REF_FRAME      = TEME
TIME_SYSTEM    = UTC
MEAN_ELEMENT_THEORY = SGP/SGP4

EPOCH          = 2026-01-23T15:01:36.895872
MEAN_MOTION    = 14.90858580
ECCENTRICITY   = .00146578
INCLINATION    = 82.5159
RA_OF_ASC_NODE = 349.9687
ARG_OF_PERICENTER = 318.6940
MEAN_ANOMALY   = 41.3169

EPHEMERIS_TYPE = 0
CLASSIFICATION_TYPE = U
NORAD_CAT_ID   = 11672
ELEMENT_SET_NO = 999
REV_AT_EPOCH   = 46977
BSTAR          = .12756862E-3
MEAN_MOTION_DOT = .1283E-4
MEAN_MOTION_DDOT = 0

CCSDS_OMM_VERS = 2.0
CREATION_DATE  = 
ORIGINATOR     = 

OBJECT_NAME    = SL-8 R/B
OBJECT_ID      = 1981-003B
CENTER_NAME    = EARTH
REF_FRAME      = TEME
TIME_SYSTEM    = UTC
MEAN_ELEMENT_THEORY = SGP/SGP4

EPOCH          = 2026-01-23T14:38:35.070432
MEAN_MOTION    = 15.09010179
ECCENTRICITY   = .02683752
INCLINATION    = 82.9395
RA_OF_ASC_NODE = 331.6533
ARG_OF_PERICENTER = 336.2649
MEAN_ANOMALY   = 22.6382

EPHEMERIS_TYPE = 0
CLASSIFICATION_TYPE = U
NORAD_CAT_ID   = 12139
ELEMENT_SET_NO = 999
REV_AT_EPOCH   = 30787
BSTAR          = .91356106E-3
MEAN_MOTION_DOT = .34441E-3
MEAN_MOTION_DDOT = 0

CCSDS_OMM_VERS = 2.0
CREATION_DATE  = 
ORIGINATOR     = 

OBJECT_NAME    = SL-3 R/B
OBJECT_ID      = 1981-046B
CENTER_NAME    = EARTH
REF_FRAME      = TEME
TIME_SYSTEM    = UTC
MEAN_ELEMENT_THEORY = SGP/SGP4

EPOCH          = 2026-01-23T14:25:13.983456
MEAN_MOTION    = 15.40670974
ECCENTRICITY   = .00194251
INCLINATION    = 81.2344
RA_OF_ASC_NODE = 343.8192
ARG_OF_PERICENTER = 170.5370
MEAN_ANOMALY   = 189.6242

EPHEMERIS_TYPE = 0
CLASSIFICATION_TYPE = U
NORAD_CAT_ID   = 12465
ELEMENT_SET_NO = 999
REV_AT_EPOCH   = 43148
BSTAR          = .41239692E-3
MEAN_MOTION_DOT = .16974E-3
MEAN_MOTION_DDOT = 0

CCSDS_OMM_VERS = 2.0
CREATION_DATE  = 
ORIGINATOR     = 

OBJECT_NAME    = SL-3 R/B
OBJECT_ID      = 1981-103B
CENTER_NAME    = EARTH
REF_FRAME      = TEME
TIME_SYSTEM    = UTC
MEAN_ELEMENT_THEORY = SGP/SGP4

EPOCH          = 2026-01-23T15:29:25.660032
MEAN_MOTION    = 15.20804361
ECCENTRICITY   = .00143756
INCLINATION    = 81.1575
RA_OF_ASC_NODE = 266.2603
ARG_OF_PERICENTER = 76.8215
MEAN_ANOMALY   = 283.4619

EPHEMERIS_TYPE = 0
CLASSIFICATION_TYPE = U
NORAD_CAT_ID   = 12904
ELEMENT_SET_NO = 999
REV_AT_EPOCH   = 96638
BSTAR          = .32067727E-3
MEAN_MOTION_DOT = .7114E-4
MEAN_MOTION_DDOT = 0

CCSDS_OMM_VERS = 2.0
CREATION_DATE  = 
ORIGINATOR     = 

OBJECT_NAME    = SL-3 R/B
OBJECT_ID      = 1982-013B
CENTER_NAME    = EARTH
REF_FRAME      = TEME
TIME_SYSTEM    = UTC
MEAN_ELEMENT_THEORY = SGP/SGP4

EPOCH          = 2026-01-23T14:34:35.720832
MEAN_MOTION    = 15.21498783
ECCENTRICITY   = .00223305
INCLINATION    = 81.1723
RA_OF_ASC_NODE = 213.5866
ARG_OF_PERICENTER = 334.1245
MEAN_ANOMALY   = 25.8868

EPHEMERIS_TYPE = 0
CLASSIFICATION_TYPE = U
NORAD_CAT_ID   = 13068
ELEMENT_SET_NO = 999
REV_AT_EPOCH   = 39749
BSTAR          = .2841501E-3
MEAN_MOTION_DOT = .646E-4
MEAN_MOTION_DDOT = 0

CCSDS_OMM_VERS = 2.0
CREATION_DATE  = 
ORIGINATOR     = 

OBJECT_NAME    = SL-3 R/B
OBJECT_ID      = 1982-039B
CENTER_NAME    = EARTH
REF_FRAME      = TEME
TIME_SYSTEM    = UTC
MEAN_ELEMENT_THEORY = SGP/SGP4

EPOCH          = 2026-01-23T15:51:59.109984
MEAN_MOTION    = 15.09813859
ECCENTRICITY   = .00300311
INCLINATION    = 81.1651
RA_OF_ASC_NODE = 267.8521
ARG_OF_PERICENTER = 111.7830
MEAN_ANOMALY   = 248.6596

EPHEMERIS_TYPE = 0
CLASSIFICATION_TYPE = U
NORAD_CAT_ID   = 13154
ELEMENT_SET_NO = 999
REV_AT_EPOCH   = 37484
BSTAR          = .24259507E-3
MEAN_MOTION_DOT = .3985E-4
MEAN_MOTION_DDOT = 0

