ATLAS CENTAUR R/B       
1 06155U 72065B   26023.62455827  .00002092  00000+0  28888-3 0  9998
2 06155  34.9997 209.8233 0034003 349.6712  10.3287 14.77540694834596
SL-8 R/B                
1 08459U 75112B   26023.63693470  .00000509  00000+0  17612-3 0  9996
2 08459  74.0608 101.7943 0016108 208.4160 151.6117 14.38178280625394
SL-3 R/B                
1 10114U 77057B   26023.57104981  .00017801  00000+0  39008-3 0  9990
2 10114  97.5715 193.5704 0008593  86.8324 273.3907 15.44122825661365
SEASAT 1                
1 10967U 78064A   26023.46439944  .00000757  00000+0  25021-3 0  9995
2 10967 108.0169  30.5864 0001235 284.9024  75.1985 14.46115631499971
SL-14 R/B               
1 11267U 79011B   26023.57559193  .00001304  00000+0  12644-3 0  9999
2 11267  82.5261 139.3687 0015436 203.3477 156.7044 14.91840685522052
SL-8 R/B                
1 11574U 79089B   26023.66147012  .00000643  00000+0  20248-3 0  9992
2 11574  74.0683 174.3883 0015871 354.0245   6.0719 14.42317620429612
SL-14 R/B               
1 11672U 80005B   26023.62612148  .00001283  00000+0  12757-3 0  9991
2 11672  82.5159 349.9687 0014657 318.6940  41.3169 14.90858580469774
SL-8 R/B                
1 12139U 81003B   26023.61012813  .00034441  00000+0  91356-3 0  9995
2 12139  82.9395 331.6533 0268375 336.2649  22.6382 15.09010179307873
SL-3 R/B                
1 12465U 81046B   26023.60085629  .00016974  00000+0  41240-3 0  9996
2 12465  81.2344 343.8192 0019425 170.5370 189.6242 15.40670974431481
SL-3 R/B                
1 12904U 81103B   26023.64543588  .00007114  00000+0  32068-3 0  9999
2 12904  81.1575 266.2603 0014375  76.8215 283.4619 15.20804361966384
SL-3 R/B                
1 13068U 82013B   26023.60735788  .00006460  00000+0  28415-3 0  9997
2 13068  81.1723 213.5866 0022330 334.1245  25.8868 15.21498783397492
SL-3 R/B                
1 13154U 82039B   26023.66110081  .00003985  00000+0  24260-3 0  9993
2 13154  81.1651 267.8521 0030031 111.7830 248.6596 15.09813859374842
